NORAD_CAT_ID,OBJECT_NAME,OBJECT_TYPE,EPOCH,MEAN_MOTION,ECCENTRICITY,INCLINATION,RA_OF_ASC_NODE,ARG_OF_PERICENTER,MEAN_ANOMALY,BSTAR,MEAN_MOTION_DOT,MEAN_MOTION_DDOT,TLE_LINE0,TLE_LINE1,TLE_LINE2,SEMIMAJOR_AXIS,PERIOD,APOGEE,PERIGEE,DECAYED
54179.0,STARLINK-5122,PAYLOAD,2024-02-09 14:36:15,15.08840512,0.0001418,53.2163,171.6656,64.3022,295.8116,0.00013377,1.842e-05,0.0,0 STARLINK-5122,1 54179U 22141Y   24040.60851507  .00001842  00000-0  13377-3 0  9997,2 54179  53.2163 171.6656 0001418  64.3022 295.8116 15.08840512 71263,6917.879,95.438,540.725,538.763,0.0
54179.0,STARLINK-5122,PAYLOAD,2024-02-09 17:47:00,15.08853024,0.0001307,53.2165,171.071,110.3672,249.7461,0.00022695,3.327e-05,0.0,0 STARLINK-5122,1 54179U 22141Y   24040.74098255  .00003327  00000-0  22695-3 0  9998,2 54179  53.2165 171.0710 0001307 110.3672 249.7461 15.08853024 71511,6917.841,95.437,540.61,538.801,0.0
54179.0,STARLINK-5122,PAYLOAD,2024-02-10 08:05:30,15.08837445,8.95e-05,53.2153,168.3917,105.916,254.1931,6.2704e-05,7.1e-06,0.0,0 STARLINK-5122,1 54179U 22141Y   24041.33715772  .00000710  00000-0  62704-4 0  9993,2 54179  53.2153 168.3917 0000895 105.9160 254.1931 15.08837445 71600,6917.888,95.438,540.372,539.134,0.0
54179.0,STARLINK-5122,PAYLOAD,2024-02-10 14:27:02,15.0884137,0.0001088,53.2155,167.2036,103.0732,257.0381,8.916e-05,1.132e-05,0.0,0 STARLINK-5122,1 54179U 22141Y   24041.60211507  .00001132  00000-0  89160-4 0  9994,2 54179  53.2155 167.2036 0001088 103.0732 257.0381 15.08841370 71413,6917.876,95.437,540.494,538.989,0.0
54179.0,STARLINK-5122,PAYLOAD,2024-02-10 16:02:25,15.08843823,0.0001177,53.2164,166.9068,90.8402,269.2725,0.0001242,1.69e-05,0.0,0 STARLINK-5122,1 54179U 22141Y   24041.66835352  .00001690  00000-0  12420-3 0  9993,2 54179  53.2164 166.9068 0001177  90.8402 269.2725 15.08843823 71423,6917.869,95.437,540.548,538.919,0.0
54179.0,STARLINK-5122,PAYLOAD,2024-02-11 14:17:49,15.08853064,0.000168,53.2189,162.7436,74.1294,285.9883,-1.5677e-05,-5.38e-06,0.0,0 STARLINK-5122,1 54179U 22141Y   24042.59571124 -.00000538  00000-0 -15677-4 0  9990,2 54179  53.2189 162.7436 0001680  74.1294 285.9883 15.08853064 71569,6917.84,95.437,540.868,538.543,0.0
54179.0,STARLINK-5122,PAYLOAD,2024-02-12 10:57:50,15.08839966,0.0001549,53.218,158.8818,61.1681,298.9467,8.9964e-05,1.144e-05,0.0,0 STARLINK-5122,1 54179U 22141Y   24043.45683429  .00001144  00000-0  89964-4 0  9990,2 54179  53.2180 158.8818 0001549  61.1681 298.9467 15.08839966 71927,6917.88,95.438,540.817,538.674,0.0
54179.0,STARLINK-5122,PAYLOAD,2024-02-12 14:08:36,15.08849411,0.0001361,53.2172,158.2806,84.6112,275.5035,2.6809e-05,1.39e-06,0.0,0 STARLINK-5122,1 54179U 22141Y   24043.58930797  .00000139  00000-0  26809-4 0  9999,2 54179  53.2172 158.2806 0001361  84.6112 275.5035 15.08849411 71715,6917.852,95.437,540.658,538.775,0.0
54179.0,STARLINK-5122,PAYLOAD,2024-02-12 17:19:22,15.08853606,0.000119,53.2165,157.6823,91.3074,268.8054,2.9316e-05,1.79e-06,0.0,0 STARLINK-5122,1 54179U 22141Y   24043.72178336  .00000179  00000-0  29316-4 0  9998,2 54179  53.2165 157.6823 0001190  91.3074 268.8054 15.08853606 71965,6917.839,95.437,540.527,538.881,0.0
54179.0,STARLINK-5122,PAYLOAD,2024-02-13 12:24:00,15.08844973,0.0001469,53.2163,154.1109,101.0905,259.0252,-6.1815e-05,-1.272e-05,0.0,0 STARLINK-5122,1 54179U 22141Y   24044.51667337 -.00001272  00000-0 -61815-4 0  9997,2 54179  53.2163 154.1109 0001469 101.0905 259.0252 15.08844973 72086,6917.865,95.437,540.746,538.714,0.0
54179.0,STARLINK-5122,PAYLOAD,2024-02-13 13:59:24,15.08842732,0.0001653,53.216,153.8211,58.9764,301.139,-1.9424e-05,-5.97e-06,0.0,0 STARLINK-5122,1 54179U 22141Y   24044.58291724 -.00000597  00000-0 -19424-4 0  9995,2 54179  53.2160 153.8211 0001653  58.9764 301.1390 15.08842732 71869,6917.872,95.437,540.881,538.594,0.0
54179.0,STARLINK-5122,PAYLOAD,2024-02-14 13:50:10,15.08851309,0.0001346,53.2169,149.3651,85.2566,274.858,0.00014429,2.01e-05,0.0,0 STARLINK-5122,1 54179U 22141Y   24045.57650783  .00002010  00000-0  14429-3 0  9998,2 54179  53.2169 149.3651 0001346  85.2566 274.8580 15.08851309 72013,6917.846,95.437,540.642,538.78,0.0
54179.0,STARLINK-5122,PAYLOAD,2024-02-14 23:22:29,15.08845975,0.0001365,53.216,147.5768,66.5863,293.5273,-3.8784e-05,-9.05e-06,0.0,0 STARLINK-5122,1 54179U 22141Y   24045.97395356 -.00000905  00000-0 -38784-4 0  9998,2 54179  53.2160 147.5768 0001365  66.5863 293.5273 15.08845975 72307,6917.862,95.437,540.671,538.783,0.0
54179.0,STARLINK-5122,PAYLOAD,2024-02-15 12:05:35,15.08828113,0.0001527,53.2181,145.2019,103.7397,256.3765,6.245e-05,7.06e-06,0.0,0 STARLINK-5122,1 54179U 22141Y   24046.50388763  .00000706  00000-0  62450-4 0  9996,2 54179  53.2181 145.2019 0001527 103.7397 256.3765 15.08828113 72386,6917.917,95.438,540.838,538.725,0.0
54179.0,STARLINK-5122,PAYLOAD,2024-02-15 15:16:21,15.08841414,0.0001273,53.2156,144.6018,93.8541,266.2597,0.00013414,1.848e-05,0.0,0 STARLINK-5122,1 54179U 22141Y   24046.63635750  .00001848  00000-0  13414-3 0  9994,2 54179  53.2156 144.6018 0001273  93.8541 266.2597 15.08841414 72403,6917.876,95.437,540.622,538.86,0.0
54179.0,STARLINK-5122,PAYLOAD,2024-02-16 13:31:45,15.08848213,0.0001489,53.2168,140.4411,85.5954,274.5208,5.9704e-07,-2.78e-06,0.0,0 STARLINK-5122,1 54179U 22141Y   24047.56371762 -.00000278  00000-0  59704-6 0  9999,2 54179  53.2168 140.4411 0001489  85.5954 274.5208 15.08848213 72317,6917.855,95.437,540.75,538.69,0.0
54179.0,STARLINK-5122,PAYLOAD,2024-02-17 11:47:10,15.08836898,0.0001741,53.218,136.2781,68.4428,291.6749,3.5411e-05,2.75e-06,0.0,0 STARLINK-5122,1 54179U 22141Y   24048.49108887  .00000275  00000-0  35411-4 0  9991,2 54179  53.2180 136.2781 0001741  68.4428 291.6749 15.08836898 72687,6917.89,95.438,540.959,538.55,0.0
54179.0,STARLINK-5122,PAYLOAD,2024-02-17 13:22:33,15.08839273,0.0001709,53.2179,135.9796,68.2947,291.8227,4.5203e-05,4.31e-06,0.0,0 STARLINK-5122,1 54179U 22141Y   24048.55732683  .00000431  00000-0  45203-4 0  9999,2 54179  53.2179 135.9796 0001709  68.2947 291.8227 15.08839273 72464,6917.883,95.438,540.93,538.565,0.0
54179.0,STARLINK-5122,PAYLOAD,2024-02-17 14:57:55,15.08845009,0.0001494,53.2174,135.6817,81.0738,279.0423,7.9558e-05,9.79e-06,0.0,0 STARLINK-5122,1 54179U 22141Y   24048.62356123  .00000979  00000-0  79558-4 0  9995,2 54179  53.2174 135.6817 0001494  81.0738 279.0423 15.08845009 72709,6917.865,95.437,540.764,538.697,0.0
54179.0,STARLINK-5122,PAYLOAD,2024-02-18 13:13:19,15.0884979,0.0001387,53.2158,131.5197,87.6472,272.4679,0.0001241,1.688e-05,0.0,0 STARLINK-5122,1 54179U 22141Y   24049.55091653  .00001688  00000-0  12410-3 0  9993,2 54179  53.2158 131.5197 0001387  87.6472 272.4679 15.08849790 72616,6917.85,95.437,540.675,538.756,0.0
54179.0,STARLINK-5122,PAYLOAD,2024-02-18 22:45:38,15.08840368,0.0001656,53.2178,129.7327,74.6788,285.4387,4.5745e-05,4.4e-06,0.0,0 STARLINK-5122,1 54179U 22141Y   24049.94836419  .00000440  00000-0  45745-4 0  9996,2 54179  53.2178 129.7327 0001656  74.6788 285.4387 15.08840368 72675,6917.879,95.438,540.89,538.599,0.0
54179.0,STARLINK-5122,PAYLOAD,2024-02-19 09:53:17,15.08875821,0.0001943,53.2174,127.6531,118.3002,241.8186,0.00031159,4.679e-05,0.0,0 STARLINK-5122,1 54179U 22141Y   24050.41201234  .00004679  00000-0  31159-3 0  9992,2 54179  53.2174 127.6531 0001943 118.3002 241.8186 15.08875821 72977,6917.771,95.435,540.98,538.292,0.0
54179.0,STARLINK-5122,PAYLOAD,2024-02-19 22:36:26,15.08831295,0.0001418,53.2175,125.2735,91.0218,269.0936,-3.7544e-05,-8.85e-06,0.0,0 STARLINK-5122,1 54179U 22141Y   24050.94197043 -.00000885  00000-0 -37544-4 0  9994,2 54179  53.2175 125.2735 0001418  91.0218 269.0936 15.08831295 72827,6917.907,95.438,540.753,538.791,0.0
54179.0,STARLINK-5122,PAYLOAD,2024-02-20 09:44:07,15.08843575,0.0001433,53.2149,123.1936,78.8887,281.2266,5.3074e-05,5.57e-06,0.0,0 STARLINK-5122,1 54179U 22141Y   24051.40564129  .00000557  00000-0  53074-4 0  9999,2 54179  53.2149 123.1936 0001433  78.8887 281.2266 15.08843575 73120,6917.869,95.437,540.726,538.743,0.0
54179.0,STARLINK-5122,PAYLOAD,2024-02-21 11:10:18,15.08832281,0.0001358,53.2149,118.434,83.0678,277.0468,0.00010767,1.426e-05,0.0,0 STARLINK-5122,1 54179U 22141Y   24052.46548681  .00001426  00000-0  10767-3 0  9998,2 54179  53.2149 118.4340 0001358  83.0678 277.0468 15.08832281 73284,6917.904,95.438,540.708,538.83,0.0
54179.0,STARLINK-5122,PAYLOAD,2024-02-21 20:42:37,15.08824607,0.0001419,53.2148,116.6499,78.4166,281.6985,0.00010432,1.372e-05,0.0,0 STARLINK-5122,1 54179U 22141Y   24052.86293126  .00001372  00000-0  10432-3 0  9992,2 54179  53.2148 116.6499 0001419  78.4166 281.6985 15.08824607 73116,6917.927,95.439,540.774,538.811,0.0
54179.0,STARLINK-5122,PAYLOAD,2024-02-22 04:39:32,15.08842598,0.0001372,53.214,115.1571,86.4355,273.6794,1.3996e-05,-6.5e-07,0.0,0 STARLINK-5122,1 54179U 22141Y   24053.19412249 -.00000065  00000-0  13996-4 0  9996,2 54179  53.2140 115.1571 0001372  86.4355 273.6794 15.08842598 73398,6917.872,95.437,540.687,538.788,0.0
54179.0,STARLINK-5122,PAYLOAD,2024-02-22 11:01:02,15.08867353,0.0001463,53.215,113.9736,80.9222,279.1935,0.00023994,3.536e-05,0.0,0 STARLINK-5122,1 54179U 22141Y   24053.45905765  .00003536  00000-0  23994-3 0  9998,2 54179  53.2150 113.9736 0001463  80.9222 279.1935 15.08867353 73430,6917.797,95.436,540.674,538.65,0.0
54179.0,STARLINK-5122,PAYLOAD,2024-02-22 20:33:23,15.08841457,0.00016,53.2152,112.1884,79.9743,280.143,5.6373e-05,6.09e-06,0.0,0 STARLINK-5122,1 54179U 22141Y   24053.85651730  .00000609  00000-0  56373-4 0  9998,2 54179  53.2152 112.1884 0001600  79.9743 280.1430 15.08841457 73266,6917.876,95.437,540.848,538.634,0.0
54179.0,STARLINK-5122,PAYLOAD,2024-02-23 10:51:53,15.0881786,0.0001542,53.2158,109.5146,94.5497,265.5671,-0.00010497,-1.957e-05,0.0,0 STARLINK-5122,1 54179U 22141Y   24054.45270163 -.00001957  00000-0 -10497-3 0  9997,2 54179  53.2158 109.5146 0001542  94.5497 265.5671 15.08817860 73587,6917.948,95.439,540.88,538.746,0.0
